ONEWEB-0670             
1 55829U 23029AK  23331.92166382  .00000185  00000+0  46406-3 0  9990
2 55829  87.8965 115.2848 0001160  76.9911 283.1348 13.14504340 36951
ONEWEB-0671             
1 55830U 23029AL  23331.89604425  .00000022  00000+0  21778-4 0  9999
2 55830  87.9182 130.5417 0001249  81.1588 278.9686 13.19725481 35933
ONEWEB-0672             
1 55831U 23029AM  23331.90576894  .00000049  00000+0  89344-4 0  9992
2 55831  87.9189 100.0094 0001955 103.6798 256.4553 13.20768915 38085
ONEWEB-0673             
1 55832U 23029AN  23331.87235503  .00000035  00000+0  53938-4 0  9993
2 55832  87.9077 130.5239 0001185  91.3323 268.7945 13.19724713 35931
ONEWEB-0674             
1 55833U 23029AP  23331.88996016 -.00000185  00000+0 -53235-3 0  9995
2 55833  87.8965 115.3058 0001325  68.4256 291.7015 13.14499991 36930
ONEWEB-0675             
1 55834U 23029AQ  23331.88813964 -.00000009  00000+0 -55335-4 0  9995
2 55834  87.9187 130.5370 0001764 108.6553 251.4772 13.19725355 35953
ONEWEB-0720             
1 55835U 23029AR  23331.88023621  .00000410  00000+0  99065-3 0  9990
2 55835  87.9183 130.5410 0001146 105.3413 254.7847 13.19722675 35870
ONEWEB-0537             
1 56046U 23043A   23331.73691528  .00001949  00000+0  41502-2 0  9992
2 56046  87.9582  54.3531 0002039 117.2936 242.8411 13.29949496 36249
